FLOCK 4G-10             
1 62670U 25009BP  26068.70827885  .00013952  00000+0  52624-3 0  9995
2 62670  97.3967 150.5883 0003469 341.4844  18.6269 15.27155944121340
STARLINK-33909          
1 63804U 25092A   26068.32277394  .00037012  00000+0  13471-2 0  9998
2 63804  42.9960 175.0437 0001468 151.3355 208.7577 15.27595619 48550
